[{"OBJECT_NAME":"YUNYAO-1 48","OBJECT_ID":"2025-059F","EPOCH":"2026-03-09T22:24:05.789376","MEAN_MOTION":15.10574052,"ECCENTRICITY":0.00165064,"INCLINATION":97.6074,"RA_OF_ASC_NODE":250.9983,"ARG_OF_PERICENTER":137.6901,"MEAN_ANOMALY":222.5605,"EPHEMERIS_TYPE":0,"CLASSIFICATION_TYPE":"U","NORAD_CAT_ID":63349,"ELEMENT_SET_NO":999,"REV_AT_EPOCH":5331,"BSTAR":0.00030523847,"MEAN_MOTION_DOT":4.989e-5,"MEAN_MOTION_DDOT":0},{"OBJECT_NAME":"STARLINK-35078","OBJECT_ID":"2025-200D","EPOCH":"2026-03-09T17:10:39.633600","MEAN_MOTION":15.0564911,"ECCENTRICITY":6.756e-5,"INCLINATION":97.6023,"RA_OF_ASC_NODE":139.8053,"ARG_OF_PERICENTER":102.1447,"MEAN_ANOMALY":257.9856,"EPHEMERIS_TYPE":0,"CLASSIFICATION_TYPE":"U","NORAD_CAT_ID":65523,"ELEMENT_SET_NO":999,"REV_AT_EPOCH":2913,"BSTAR":0.00024269803,"MEAN_MOTION_DOT":3.443e-5,"MEAN_MOTION_DDOT":0}]
